ISS OBJECT YC           
1 67686U 98067YC  26064.08285944  .00055661  00000+0  90337-3 0  9998
2 67686  51.6311  94.6478 0007744 134.4448 225.7176 15.52157473  4071
LEOPARD                 
1 67687U 98067YD  26063.31561112  .00056781  00000+0  94368-3 0  9990
2 67687  51.6306  98.5236 0007781 136.2386 223.9221 15.51484974  3879
ISS OBJECT YE           
1 67688U 98067YE  26063.50513603  .00064836  00000+0  10599-2 0  9997
2 67688  51.6315  97.5383 0007786 134.7310 225.4314 15.51890022  3906
PRC TEST SPACECRAFT 4   
1 67689U 26024A   26064.13897088  .00000189  00000+0  42582-4 0  9994
2 67689  49.9860  44.1334 0006097 342.6403  17.4329 14.91683854  3904
CZ-2F R/B               
1 67690U 26024B   26064.14384343  .00022408  00000+0  41019-3 0  9993
2 67690  49.9876  37.3952 0174900 256.0388 102.1067 15.34122748  3990
CZ-2F DEB               
1 67691U 26024C   26064.16881971  .01309698  11013-4  76524-3 0  9995
2 67691  49.9034  28.8555 0148758 270.6296  87.7646 15.97922599  4097
CZ-2F DEB               
1 67692U 26024D   26064.15298786  .00256375  00000+0  45492-2 0  9991
2 67692  50.3185  40.9632 0238000 262.1780  95.2103 15.23579308  3935
STARLINK-36748          
1 67693U 26025A   26064.09500542  .00398235  00000+0  25469-2 0  9996
2 67693  97.2840 175.3999 0001313  74.2393 285.9017 15.75202162  5213
STARLINK-36753          
1 67694U 26025B   26064.15101200  .00081481  00000+0  62673-3 0  9993
2 67694  97.2834 175.4766 0016195 150.6426 209.5751 15.71597631  5233
STARLINK-36750          
1 67695U 26025C   26064.05869461  .00554390  00000+0  26953-2 0  9997
2 67695  97.2840 175.4510 0001108  94.4001 265.7394 15.80975247  5218
STARLINK-36401          
1 67696U 26025D   26064.20053200  .00232353  00000+0  15118-2 0  9994
2 67696  97.2841 175.5619 0001440  70.2921 289.8499 15.75264896  5233
STARLINK-36704          
1 67697U 26025E   26064.14865138  .00338183  00000+0  21755-2 0  9991
2 67697  97.2844 175.4783 0001841  54.0205 306.1231 15.75233730  5227
