CCSDS_OMM_VERS = 2.0
CREATION_DATE  = 
ORIGINATOR     = 

OBJECT_NAME    = ISS OBJECT YC
OBJECT_ID      = 1998-067YC
CENTER_NAME    = EARTH
REF_FRAME      = TEME
TIME_SYSTEM    = UTC
MEAN_ELEMENT_THEORY = SGP/SGP4

EPOCH          = 2026-03-05T01:59:19.055616
MEAN_MOTION    = 15.52157473
ECCENTRICITY   = .0007744
INCLINATION    = 51.6311
RA_OF_ASC_NODE = 94.6478
ARG_OF_PERICENTER = 134.4448
MEAN_ANOMALY   = 225.7176

EPHEMERIS_TYPE = 0
CLASSIFICATION_TYPE = U
NORAD_CAT_ID   = 67686
ELEMENT_SET_NO = 999
REV_AT_EPOCH   = 407
BSTAR          = .90337E-3
MEAN_MOTION_DOT = .55661E-3
MEAN_MOTION_DDOT = 0

CCSDS_OMM_VERS = 2.0
CREATION_DATE  = 
ORIGINATOR     = 

OBJECT_NAME    = LEOPARD
OBJECT_ID      = 1998-067YD
CENTER_NAME    = EARTH
REF_FRAME      = TEME
TIME_SYSTEM    = UTC
MEAN_ELEMENT_THEORY = SGP/SGP4

EPOCH          = 2026-03-04T07:34:28.800768
MEAN_MOTION    = 15.51484974
ECCENTRICITY   = .00077812
INCLINATION    = 51.6306
RA_OF_ASC_NODE = 98.5236
ARG_OF_PERICENTER = 136.2386
MEAN_ANOMALY   = 223.9221

EPHEMERIS_TYPE = 0
CLASSIFICATION_TYPE = U
NORAD_CAT_ID   = 67687
ELEMENT_SET_NO = 999
REV_AT_EPOCH   = 387
BSTAR          = .94368384E-3
MEAN_MOTION_DOT = .56781E-3
MEAN_MOTION_DDOT = 0

CCSDS_OMM_VERS = 2.0
CREATION_DATE  = 
ORIGINATOR     = 

OBJECT_NAME    = ISS OBJECT YE
OBJECT_ID      = 1998-067YE
CENTER_NAME    = EARTH
REF_FRAME      = TEME
TIME_SYSTEM    = UTC
MEAN_ELEMENT_THEORY = SGP/SGP4

EPOCH          = 2026-03-04T12:07:23.752992
MEAN_MOTION    = 15.51890022
ECCENTRICITY   = .00077863
INCLINATION    = 51.6315
RA_OF_ASC_NODE = 97.5383
ARG_OF_PERICENTER = 134.7310
MEAN_ANOMALY   = 225.4314

EPHEMERIS_TYPE = 0
CLASSIFICATION_TYPE = U
NORAD_CAT_ID   = 67688
ELEMENT_SET_NO = 999
REV_AT_EPOCH   = 390
BSTAR          = .10599088E-2
MEAN_MOTION_DOT = .64836E-3
MEAN_MOTION_DDOT = 0

CCSDS_OMM_VERS = 2.0
CREATION_DATE  = 
ORIGINATOR     = 

OBJECT_NAME    = PRC TEST SPACECRAFT 4
OBJECT_ID      = 2026-024A
CENTER_NAME    = EARTH
REF_FRAME      = TEME
TIME_SYSTEM    = UTC
MEAN_ELEMENT_THEORY = SGP/SGP4

EPOCH          = 2026-03-05T03:20:07.084032
MEAN_MOTION    = 14.91683854
ECCENTRICITY   = .0006097
INCLINATION    = 49.9860
RA_OF_ASC_NODE = 44.1334
ARG_OF_PERICENTER = 342.6403
MEAN_ANOMALY   = 17.4329

EPHEMERIS_TYPE = 0
CLASSIFICATION_TYPE = U
NORAD_CAT_ID   = 67689
ELEMENT_SET_NO = 999
REV_AT_EPOCH   = 390
BSTAR          = .42582E-4
MEAN_MOTION_DOT = .189E-5
MEAN_MOTION_DDOT = 0

CCSDS_OMM_VERS = 2.0
CREATION_DATE  = 
ORIGINATOR     = 

OBJECT_NAME    = CZ-2F R/B
OBJECT_ID      = 2026-024B
CENTER_NAME    = EARTH
REF_FRAME      = TEME
TIME_SYSTEM    = UTC
MEAN_ELEMENT_THEORY = SGP/SGP4

EPOCH          = 2026-03-05T03:27:08.072352
MEAN_MOTION    = 15.34122748
ECCENTRICITY   = .01749
INCLINATION    = 49.9876
RA_OF_ASC_NODE = 37.3952
ARG_OF_PERICENTER = 256.0388
MEAN_ANOMALY   = 102.1067

EPHEMERIS_TYPE = 0
CLASSIFICATION_TYPE = U
NORAD_CAT_ID   = 67690
ELEMENT_SET_NO = 999
REV_AT_EPOCH   = 399
BSTAR          = .41019E-3
MEAN_MOTION_DOT = .22408E-3
MEAN_MOTION_DDOT = 0

CCSDS_OMM_VERS = 2.0
CREATION_DATE  = 
ORIGINATOR     = 

OBJECT_NAME    = CZ-2F DEB
OBJECT_ID      = 2026-024C
CENTER_NAME    = EARTH
REF_FRAME      = TEME
TIME_SYSTEM    = UTC
MEAN_ELEMENT_THEORY = SGP/SGP4

EPOCH          = 2026-03-05T04:03:06.022944
MEAN_MOTION    = 15.97922599
ECCENTRICITY   = .0148758
INCLINATION    = 49.9034
RA_OF_ASC_NODE = 28.8555
ARG_OF_PERICENTER = 270.6296
MEAN_ANOMALY   = 87.7646

EPHEMERIS_TYPE = 0
CLASSIFICATION_TYPE = U
NORAD_CAT_ID   = 67691
ELEMENT_SET_NO = 999
REV_AT_EPOCH   = 409
BSTAR          = .76524E-3
MEAN_MOTION_DOT = .1309698E-1
MEAN_MOTION_DDOT = .11013E-4

CCSDS_OMM_VERS = 2.0
CREATION_DATE  = 
ORIGINATOR     = 

OBJECT_NAME    = CZ-2F DEB
OBJECT_ID      = 2026-024D
CENTER_NAME    = EARTH
REF_FRAME      = TEME
TIME_SYSTEM    = UTC
MEAN_ELEMENT_THEORY = SGP/SGP4

EPOCH          = 2026-03-05T03:40:18.151104
MEAN_MOTION    = 15.23579308
ECCENTRICITY   = .0238
INCLINATION    = 50.3185
RA_OF_ASC_NODE = 40.9632
ARG_OF_PERICENTER = 262.1780
MEAN_ANOMALY   = 95.2103

EPHEMERIS_TYPE = 0
CLASSIFICATION_TYPE = U
NORAD_CAT_ID   = 67692
ELEMENT_SET_NO = 999
REV_AT_EPOCH   = 393
BSTAR          = .45492E-2
MEAN_MOTION_DOT = .256375E-2
MEAN_MOTION_DDOT = 0

CCSDS_OMM_VERS = 2.0
CREATION_DATE  = 
ORIGINATOR     = 

OBJECT_NAME    = STARLINK-36748
OBJECT_ID      = 2026-025A
CENTER_NAME    = EARTH
REF_FRAME      = TEME
TIME_SYSTEM    = UTC
MEAN_ELEMENT_THEORY = SGP/SGP4

EPOCH          = 2026-03-05T02:16:48.468288
MEAN_MOTION    = 15.75202162
ECCENTRICITY   = .0001313
INCLINATION    = 97.2840
RA_OF_ASC_NODE = 175.3999
ARG_OF_PERICENTER = 74.2393
MEAN_ANOMALY   = 285.9017

EPHEMERIS_TYPE = 0
CLASSIFICATION_TYPE = U
NORAD_CAT_ID   = 67693
ELEMENT_SET_NO = 999
REV_AT_EPOCH   = 521
BSTAR          = .25469E-2
MEAN_MOTION_DOT = .398235E-2
MEAN_MOTION_DDOT = 0

CCSDS_OMM_VERS = 2.0
CREATION_DATE  = 
ORIGINATOR     = 

OBJECT_NAME    = STARLINK-36753
OBJECT_ID      = 2026-025B
CENTER_NAME    = EARTH
REF_FRAME      = TEME
TIME_SYSTEM    = UTC
MEAN_ELEMENT_THEORY = SGP/SGP4

EPOCH          = 2026-03-05T03:37:27.436800
MEAN_MOTION    = 15.71597631
ECCENTRICITY   = .0016195
INCLINATION    = 97.2834
RA_OF_ASC_NODE = 175.4766
ARG_OF_PERICENTER = 150.6426
MEAN_ANOMALY   = 209.5751

EPHEMERIS_TYPE = 0
CLASSIFICATION_TYPE = U
NORAD_CAT_ID   = 67694
ELEMENT_SET_NO = 999
REV_AT_EPOCH   = 523
BSTAR          = .62673E-3
MEAN_MOTION_DOT = .81481E-3
MEAN_MOTION_DDOT = 0

CCSDS_OMM_VERS = 2.0
CREATION_DATE  = 
ORIGINATOR     = 

OBJECT_NAME    = STARLINK-36750
OBJECT_ID      = 2026-025C
CENTER_NAME    = EARTH
REF_FRAME      = TEME
TIME_SYSTEM    = UTC
MEAN_ELEMENT_THEORY = SGP/SGP4

EPOCH          = 2026-03-05T01:24:31.214304
MEAN_MOTION    = 15.80975247
ECCENTRICITY   = .0001108
INCLINATION    = 97.2840
RA_OF_ASC_NODE = 175.4510
ARG_OF_PERICENTER = 94.4001
MEAN_ANOMALY   = 265.7394

EPHEMERIS_TYPE = 0
CLASSIFICATION_TYPE = U
NORAD_CAT_ID   = 67695
ELEMENT_SET_NO = 999
REV_AT_EPOCH   = 521
BSTAR          = .26953E-2
MEAN_MOTION_DOT = .55439E-2
MEAN_MOTION_DDOT = 0

CCSDS_OMM_VERS = 2.0
CREATION_DATE  = 
ORIGINATOR     = 

OBJECT_NAME    = STARLINK-36401
OBJECT_ID      = 2026-025D
CENTER_NAME    = EARTH
REF_FRAME      = TEME
TIME_SYSTEM    = UTC
MEAN_ELEMENT_THEORY = SGP/SGP4

EPOCH          = 2026-03-05T04:48:45.964800
MEAN_MOTION    = 15.75264896
ECCENTRICITY   = .000144
INCLINATION    = 97.2841
RA_OF_ASC_NODE = 175.5619
ARG_OF_PERICENTER = 70.2921
MEAN_ANOMALY   = 289.8499

EPHEMERIS_TYPE = 0
CLASSIFICATION_TYPE = U
NORAD_CAT_ID   = 67696
ELEMENT_SET_NO = 999
REV_AT_EPOCH   = 523
BSTAR          = .15118E-2
MEAN_MOTION_DOT = .232353E-2
MEAN_MOTION_DDOT = 0

CCSDS_OMM_VERS = 2.0
CREATION_DATE  = 
ORIGINATOR     = 

OBJECT_NAME    = STARLINK-36704
OBJECT_ID      = 2026-025E
CENTER_NAME    = EARTH
REF_FRAME      = TEME
TIME_SYSTEM    = UTC
MEAN_ELEMENT_THEORY = SGP/SGP4

EPOCH          = 2026-03-05T03:34:03.479232
MEAN_MOTION    = 15.75233730
ECCENTRICITY   = .0001841
INCLINATION    = 97.2844
RA_OF_ASC_NODE = 175.4783
ARG_OF_PERICENTER = 54.0205
MEAN_ANOMALY   = 306.1231

EPHEMERIS_TYPE = 0
CLASSIFICATION_TYPE = U
NORAD_CAT_ID   = 67697
ELEMENT_SET_NO = 999
REV_AT_EPOCH   = 522
BSTAR          = .21755E-2
MEAN_MOTION_DOT = .338183E-2
MEAN_MOTION_DDOT = 0

